{"type": "FeatureCollection", "features": [{"type": "Feature", "properties": {"norad_id": 24876, "name": "GPS BIIR-2  (PRN 13)", "group": "gnss", "lat": -16.29082427124542, "lon": 94.37017506543711, "alt_km": 20123.249554204274, "timestamp": "2025-12-14T16:47:40.925612+00:00", "meta": {"OBJECT_NAME": "GPS BIIR-2  (PRN 13)", "OBJECT_ID": "1997-035A", "EPOCH": "2025-12-13T17:30:57.892608", "MEAN_MOTION": 2.00563655, "ECCENTRICITY": 0.00967837, "INCLINATION": 55.8957, "RA_OF_ASC_NODE": 105.8301, "ARG_OF_PERICENTER": 56.998, "MEAN_ANOMALY": 303.9052, "EPHEMERIS_TYPE": 0, "CLASSIFICATION_TYPE": "U", "NORAD_CAT_ID": 24876, "ELEMENT_SET_NO": 999, "REV_AT_EPOCH": 20823, "BSTAR": 0, "MEAN_MOTION_DOT": 0, "MEAN_MOTION_DDOT": 0}, "tle": {"line1": "1 24876U 97035A   25347.72983672  .00000000  00000+0  00000+0 0  9994", "line2": "2 24876  55.8957 105.8301 0096783  56.9980 303.9052  2.00563655208235"}}, "geometry": {"type": "Point", "coordinates": [94.37017506543711, -16.29082427124542]}}, {"type": "Feature", "properties": {"norad_id": 26360, "name": "GPS BIIR-4  (PRN 20)", "group": "gnss", "lat": 51.6478254916598, "lon": 88.83807118228984, "alt_km": 20277.32878790793, "timestamp": "2025-12-14T16:47:40.925660+00:00", "meta": {"OBJECT_NAME": "GPS BIIR-4  (PRN 20)", "OBJECT_ID": "2000-025A", "EPOCH": "2025-12-13T20:04:22.857024", "MEAN_MOTION": 2.00567674, "ECCENTRICITY": 0.00388834, "INCLINATION": 55.0459, "RA_OF_ASC_NODE": 26.7934, "ARG_OF_PERICENTER": 242.101, "MEAN_ANOMALY": 287.6867, "EPHEMERIS_TYPE": 0, "CLASSIFICATION_TYPE": "U", "NORAD_CAT_ID": 26360, "ELEMENT_SET_NO": 999, "REV_AT_EPOCH": 18755, "BSTAR": 0, "MEAN_MOTION_DOT": -9.7e-07, "MEAN_MOTION_DDOT": 0}, "tle": {"line1": "1 26360U 00025A   25347.83637566 -.00000097  00000+0  00000+0 0  9994", "line2": "2 26360  55.0459  26.7934 0038883 242.1010 287.6867  2.00567674187555"}}, "geometry": {"type": "Point", "coordinates": [88.83807118228984, 51.6478254916598]}}, {"type": "Feature", "properties": {"norad_id": 26407, "name": "GPS BIIR-5  (PRN 22)", "group": "gnss", "lat": -54.8415237733904, "lon": 136.0940377083085, "alt_km": 19896.825370358925, "timestamp": "2025-12-14T16:47:40.925679+00:00", "meta": {"OBJECT_NAME": "GPS BIIR-5  (PRN 22)", "OBJECT_ID": "2000-040A", "EPOCH": "2025-12-13T20:00:26.123616", "MEAN_MOTION": 2.00568017, "ECCENTRICITY": 0.01259554, "INCLINATION": 54.8905, "RA_OF_ASC_NODE": 222.5255, "ARG_OF_PERICENTER": 301.8318, "MEAN_ANOMALY": 65.5895, "EPHEMERIS_TYPE": 0, "CLASSIFICATION_TYPE": "U", "NORAD_CAT_ID": 26407, "ELEMENT_SET_NO": 999, "REV_AT_EPOCH": 18623, "BSTAR": 0, "MEAN_MOTION_DOT": 2.9e-07, "MEAN_MOTION_DDOT": 0}, "tle": {"line1": "1 26407U 00040A   25347.83363569  .00000029  00000+0  00000+0 0  9996", "line2": "2 26407  54.8905 222.5255 0125955 301.8318  65.5895  2.00568017186233"}}, "geometry": {"type": "Point", "coordinates": [136.0940377083085, -54.8415237733904]}}, {"type": "Feature", "properties": {"norad_id": 27663, "name": "GPS BIIR-8  (PRN 16)", "group": "gnss", "lat": 37.85493556767487, "lon": -104.62056789647332, "alt_km": 19785.45459013268, "timestamp": "2025-12-14T16:47:40.925701+00:00", "meta": {"OBJECT_NAME": "GPS BIIR-8  (PRN 16)", "OBJECT_ID": "2003-005A", "EPOCH": "2025-12-13T09:15:26.891424", "MEAN_MOTION": 2.00570905, "ECCENTRICITY": 0.01474873, "INCLINATION": 54.9232, "RA_OF_ASC_NODE": 222.3526, "ARG_OF_PERICENTER": 51.8083, "MEAN_ANOMALY": 128.0829, "EPHEMERIS_TYPE": 0, "CLASSIFICATION_TYPE": "U", "NORAD_CAT_ID": 27663, "ELEMENT_SET_NO": 999, "REV_AT_EPOCH": 16758, "BSTAR": 0, "MEAN_MOTION_DOT": 2.3e-07, "MEAN_MOTION_DDOT": 0}, "tle": {"line1": "1 27663U 03005A   25347.38572791  .00000023  00000+0  00000+0 0  9998", "line2": "2 27663  54.9232 222.3526 0147487  51.8083 128.0829  2.00570905167584"}}, "geometry": {"type": "Point", "coordinates": [-104.62056789647332, 37.85493556767487]}}, {"type": "Feature", "properties": {"norad_id": 28190, "name": "GPS BIIR-11 (PRN 19)", "group": "gnss", "lat": -22.810183044035, "lon": 120.24988965086447, "alt_km": 19965.455712727846, "timestamp": "2025-12-14T16:47:40.925715+00:00", "meta": {"OBJECT_NAME": "GPS BIIR-11 (PRN 19)", "OBJECT_ID": "2004-009A", "EPOCH": "2025-12-11T22:20:18.324960", "MEAN_MOTION": 2.00560799, "ECCENTRICITY": 0.0108335, "INCLINATION": 54.9863, "RA_OF_ASC_NODE": 283.2515, "ARG_OF_PERICENTER": 167.6362, "MEAN_ANOMALY": 200.4215, "EPHEMERIS_TYPE": 0, "CLASSIFICATION_TYPE": "U", "NORAD_CAT_ID": 28190, "ELEMENT_SET_NO": 999, "REV_AT_EPOCH": 15919, "BSTAR": 0, "MEAN_MOTION_DOT": -7.6e-07, "MEAN_MOTION_DDOT": 0}, "tle": {"line1": "1 28190U 04009A   25345.93076765 -.00000076  00000+0  00000+0 0  9997", "line2": "2 28190  54.9863 283.2515 0108335 167.6362 200.4215  2.00560799159191"}}, "geometry": {"type": "Point", "coordinates": [120.24988965086447, -22.810183044035]}}, {"type": "Feature", "properties": {"norad_id": 28474, "name": "GPS BIIR-13 (PRN 02)", "group": "gnss", "lat": -55.05081206715306, "lon": -124.21970879424401, "alt_km": 19851.650967226553, "timestamp": "2025-12-14T16:47:40.925728+00:00", "meta": {"OBJECT_NAME": "GPS BIIR-13 (PRN 02)", "OBJECT_ID": "2004-045A", "EPOCH": "2025-12-12T12:01:27.782400", "MEAN_MOTION": 2.00569519, "ECCENTRICITY": 0.0170757, "INCLINATION": 55.2408, "RA_OF_ASC_NODE": 332.4152, "ARG_OF_PERICENTER": 309.2412, "MEAN_ANOMALY": 170.6572, "EPHEMERIS_TYPE": 0, "CLASSIFICATION_TYPE": "U", "NORAD_CAT_ID": 28474, "ELEMENT_SET_NO": 999, "REV_AT_EPOCH": 15468, "BSTAR": 0, "MEAN_MOTION_DOT": -8.8e-07, "MEAN_MOTION_DDOT": 0}, "tle": {"line1": "1 28474U 04045A   25346.50101600 -.00000088  00000+0  00000+0 0  9996", "line2": "2 28474  55.2408 332.4152 0170757 309.2412 170.6572  2.00569519154688"}}, "geometry": {"type": "Point", "coordinates": [-124.21970879424401, -55.05081206715306]}}, {"type": "Feature", "properties": {"norad_id": 28874, "name": "GPS BIIRM-1 (PRN 17)", "group": "gnss", "lat": -35.52858038021994, "lon": 130.54659978760003, "alt_km": 20052.98021149387, "timestamp": "2025-12-14T16:47:40.925741+00:00", "meta": {"OBJECT_NAME": "GPS BIIRM-1 (PRN 17)", "OBJECT_ID": "2005-038A", "EPOCH": "2025-12-10T14:00:21.521088", "MEAN_MOTION": 2.00578486, "ECCENTRICITY": 0.0131701, "INCLINATION": 55.0338, "RA_OF_ASC_NODE": 280.7877, "ARG_OF_PERICENTER": 293.4518, "MEAN_ANOMALY": 200.7371, "EPHEMERIS_TYPE": 0, "CLASSIFICATION_TYPE": "U", "NORAD_CAT_ID": 28874, "ELEMENT_SET_NO": 999, "REV_AT_EPOCH": 14805, "BSTAR": 0, "MEAN_MOTION_DOT": -6.4e-07, "MEAN_MOTION_DDOT": 0}, "tle": {"line1": "1 28874U 05038A   25344.58358242 -.00000064  00000+0  00000+0 0  9999", "line2": "2 28874  55.0338 280.7877 0131701 293.4518 200.7371  2.00578486148057"}}, "geometry": {"type": "Point", "coordinates": [130.54659978760003, -35.52858038021994]}}, {"type": "Feature", "properties": {"norad_id": 28899, "name": "INMARSAT 4-F2 (SOUTHPAN/PRN 122)", "group": "gnss", "lat": 4.709385912939659, "lon": 118.97217720147296, "alt_km": 35795.234584935555, "timestamp": "2025-12-14T16:47:40.925756+00:00", "meta": {"OBJECT_NAME": "INMARSAT 4-F2 (SOUTHPAN/PRN 122)", "OBJECT_ID": "2005-044A", "EPOCH": "2025-12-13T22:41:22.469280", "MEAN_MOTION": 1.00273021, "ECCENTRICITY": 0.00028015, "INCLINATION": 4.8539, "RA_OF_ASC_NODE": 43.6951, "ARG_OF_PERICENTER": 223.2105, "MEAN_ANOMALY": 299.816, "EPHEMERIS_TYPE": 0, "CLASSIFICATION_TYPE": "U", "NORAD_CAT_ID": 28899, "ELEMENT_SET_NO": 999, "REV_AT_EPOCH": 7366, "BSTAR": 0, "MEAN_MOTION_DOT": -2.47e-06, "MEAN_MOTION_DDOT": 0}, "tle": {"line1": "1 28899U 05044A   25347.94539895 -.00000247  00000+0  00000+0 0  9994", "line2": "2 28899   4.8539  43.6951 0002801 223.2105 299.8160  1.00273021 73664"}}, "geometry": {"type": "Point", "coordinates": [118.97217720147296, 4.709385912939659]}}, {"type": "Feature", "properties": {"norad_id": 29486, "name": "GPS BIIRM-2 (PRN 31)", "group": "gnss", "lat": 38.19978899657212, "lon": -55.250866866129, "alt_km": 20119.384619477558, "timestamp": "2025-12-14T16:47:40.925769+00:00", "meta": {"OBJECT_NAME": "GPS BIIRM-2 (PRN 31)", "OBJECT_ID": "2006-042A", "EPOCH": "2025-12-13T18:30:29.195136", "MEAN_MOTION": 2.00554141, "ECCENTRICITY": 0.01073409, "INCLINATION": 54.6943, "RA_OF_ASC_NODE": 158.6998, "ARG_OF_PERICENTER": 51.984, "MEAN_ANOMALY": 127.0201, "EPHEMERIS_TYPE": 0, "CLASSIFICATION_TYPE": "U", "NORAD_CAT_ID": 29486, "ELEMENT_SET_NO": 999, "REV_AT_EPOCH": 14067, "BSTAR": 0, "MEAN_MOTION_DOT": 1.02e-06, "MEAN_MOTION_DDOT": 0}, "tle": {"line1": "1 29486U 06042A   25347.77117124  .00000102  00000+0  00000+0 0  9993", "line2": "2 29486  54.6943 158.6998 0107340  51.9840 127.0201  2.00554141140673"}}, "geometry": {"type": "Point", "coordinates": [-55.250866866129, 38.19978899657212]}}, {"type": "Feature", "properties": {"norad_id": 29601, "name": "GPS BIIRM-3 (PRN 12)", "group": "gnss", "lat": -6.73295302417666, "lon": 46.074382303480554, "alt_km": 20224.040945631063, "timestamp": "2025-12-14T16:47:40.925781+00:00", "meta": {"OBJECT_NAME": "GPS BIIRM-3 (PRN 12)", "OBJECT_ID": "2006-052A", "EPOCH": "2025-12-11T22:46:47.068032", "MEAN_MOTION": 2.00573524, "ECCENTRICITY": 0.00877389, "INCLINATION": 54.9707, "RA_OF_ASC_NODE": 221.4296, "ARG_OF_PERICENTER": 87.4221, "MEAN_ANOMALY": 273.6564, "EPHEMERIS_TYPE": 0, "CLASSIFICATION_TYPE": "U", "NORAD_CAT_ID": 29601, "ELEMENT_SET_NO": 999, "REV_AT_EPOCH": 13965, "BSTAR": 0, "MEAN_MOTION_DOT": 9e-08, "MEAN_MOTION_DDOT": 0}, "tle": {"line1": "1 29601U 06052A   25345.94915588  .00000009  00000+0  00000+0 0  9996", "line2": "2 29601  54.9707 221.4296 0087738  87.4221 273.6564  2.00573524139650"}}, "geometry": {"type": "Point", "coordinates": [46.074382303480554, -6.73295302417666]}}]}